GOES 1 (SMS-C)          
1 08366U 75100A   24352.33308267 -.00000198  00000+0  00000+0 0  9991
2 08366   6.0023 284.2550 0005042 328.4399 228.3024  1.00297970179587
GOES 2                  
1 10061U 77048A   24351.96718795  .00000090  00000+0  00000+0 0  9998
2 10061   7.7229 298.0235 0012154  33.6333 170.5138  0.99393140 40838
GOES 3                  
1 10953U 78062A   24352.70137493 -.00000211  00000+0  00000+0 0  9994
2 10953   8.1403 303.3276 0002291 298.3508 264.0462  0.99365691123108
GOES 4                  
1 11964U 80074A   24352.70094052 -.00000239  00000+0  00000+0 0  9996
2 11964   9.1772 307.1326 0030314  95.0313 100.6835  0.99234311122014
GOES 5                  
1 12472U 81049A   24352.43326157 -.00000109  00000+0  00000+0 0  9994
2 12472  10.3420 319.3479 0003914 291.8923 246.8103  1.00340134117363
GOES 6                  
1 14050U 83041A   24352.43586800 -.00000189  00000+0  00000+0 0  9993
2 14050  11.0674 324.8610 0003335 240.8956 306.6248  1.00320333210538
GOES 7                  
1 17561U 87022A   24352.65053855 -.00000258  00000+0  00000+0 0  9996
2 17561  13.4259 341.5106 0001170  20.5266  59.7763  0.99893194121504
GOES 8                  
1 23051U 94022A   24352.30813116 -.00000169  00000+0  00000+0 0  9992
2 23051  13.9591  17.7297 0001250  37.4974 326.1370  0.98907435118722
GOES 9                  
1 23581U 95025A   24352.64981657 -.00000091  00000+0  00000+0 0  9991
2 23581  13.4730  18.4170 0006714 181.2361 222.7632  0.98798512107360
GOES 10                 
1 24786U 97019A   24352.54637521 -.00000252  00000+0  00000+0 0  9990
2 24786  12.4791  24.9047 0031938 224.2168 156.4243  0.99124857100650
GOES 11                 
1 26352U 00022A   24352.90806771  .00000031  00000+0  00000+0 0  9998
2 26352  10.6390  51.5836 0005973 214.4716 226.6523  0.99039171 89581
GOES 12                 
1 26871U 01031A   24352.01479847 -.00000223  00000+0  00000+0 0  9991
2 26871  11.1826  41.7201 0006871 276.5122  80.8759  0.99137911 85333
EWS-G1 (GOES 13)        
1 29155U 06018A   24352.91616593  .00000069  00000+0  00000+0 0  9996
2 29155   3.1075  83.0815 0064592 257.1118 140.8972  0.98828365 37859
GOES 14                 
1 35491U 09033A   24353.13487978 -.00000062  00000+0  00000+0 0  9998
2 35491   0.2657  91.1635 0002907 136.1251 160.0819  1.00273648 56687
EWS-G2 (GOES 15)        
1 36411U 10008A   24353.10941730  .00000043  00000+0  00000+0 0  9991
2 36411   0.1226 271.1852 0006671 344.6650 292.1550  1.00270600 54157
GOES 16                 
1 41866U 16071A   24350.86679549 -.00000240  00000+0  00000+0 0  9993
2 41866   0.0429 232.9078 0001606  73.3712  15.5888  1.00271604 29602
GOES 17                 
1 43226U 18022A   24353.07648958 -.00000086  00000+0  00000+0 0  9997
2 43226   0.0074  89.0909 0003681 173.3633 107.5736  1.00271508 24963
GOES 18                 
1 51850U 22021A   24350.92587427  .00000104  00000+0  00000+0 0  9997
2 51850   0.0085 106.1825 0000838 191.9314 343.2730  1.00273503 10301
GOES 19                 
1 60133U 24119A   24350.36370748 -.00000174  00000+0  00000+0 0  9993
2 60133   0.0202 171.1437 0001211 133.1908 181.6383  1.00271972  1801
